1 48240U 21031AG  23305.88807246 -.00000022  00000-0 -92745-4 0  9998
2 48240  87.8948 120.4489 0001127  98.7384 261.3873 13.14506403122251
1 48241U 21031AH  23305.88380874 -.00000075  00000-0 -23612-3 0  9996
2 48241  87.8940 120.4855 0001755  97.7274 262.4055 13.14502884122483
1 48242U 21031AJ  23305.93459198  .00000312  00000-0  80782-3 0  9992
2 48242  87.8937 120.4431 0001686  94.6645 265.4677 13.14503681122402
1 48243U 21031AK  23305.91238143 -.00000141  00000-0 -41358-3 0  9994
2 48243  87.8933 120.4629 0001299  95.3930 264.7348 13.14502688122417
1 48244U 21031AL  23305.87642884  .00000167  00000-0  41694-3 0  9990
2 48244  87.8946 120.4627 0001277  95.5409 264.5866 13.14505283122337
1 48245U 21031AM  23305.89333641 -.00000148  00000-0 -43376-3 0  9991
2 48245  87.8948 120.4444 0001124  93.1432 266.9827 13.14500706122280
1 48767U 21045A   23305.92481344 -.00005860  00000-0 -15587-1 0  9990
2 48767  87.8953  89.9554 0001681 101.4496 258.6823 13.15650728118423
1 48768U 21045B   23305.94696582  .00003533  00000-0  93496-2 0  9994
2 48768  87.8965  89.9557 0001217  87.8796 272.2473 13.15527470118414
